ALOS (DAICHI)           
1 28931U 06002A   26119.83022227  .00001267  00000+0  21986-3 0  9990
2 28931  98.1292  75.5624 0002001 100.2575 259.8857 14.69948901 80999
H-2A R/B                
1 28932U 06002B   26119.86146684  .00008159  00000+0  39726-3 0  9996
2 28932  98.2501 271.3601 0052291  68.2071 292.4712 15.17455082102192
RESURS-DK 1             
1 29228U 06021A   26119.37984428  .00002658  00000+0  15627-3 0  9990
2 29228  69.9315 105.8738 0003620 335.6764  24.4230 15.13005782 95196
CZ-4B R/B               
1 29507U 06046C   26119.85599056  .00005215  00000+0  26047-3 0  9999
2 29507  97.5500 164.6161 0034593  90.5388 269.9809 15.17391168 67809
CZ-2C R/B               
1 31114U 07010B   26119.87273579  .00000112  00000+0  70238-4 0  9992
2 31114  98.4040 230.6007 0059765 144.5605 215.9567 14.20263668986985
COSMO-SKYMED 1          
1 31598U 07023A   26119.80794178  .00003645  00000+0  32306-3 0  9995
2 31598  97.8866 311.2616 0001711  97.9000 262.2415 14.96865336 22554
COSMOS 2428             
1 31792U 07029A   26119.36551925 -.00000192  00000+0 -77462-4 0  9998
2 31792  70.9393  96.9749 0008903 220.1528 139.8936 14.12944385971253
SL-16 R/B               
1 31793U 07029B   26119.89286264  .00000333  00000+0  19711-3 0  9995
2 31793  70.9760  64.7481 0002516 267.9695 156.9386 14.14847592972610
KORONAS-FOTON           
1 33504U 09003A   26119.76828848  .00014449  00000+0  30842-3 0  9998
2 33504  82.4317 222.7203 0009478 336.0962  23.9845 15.44684596953625
CZ-2C R/B               
1 37731U 11030B   26119.88165955  .00001090  00000+0  14321-3 0  9995
2 37731  97.8622  76.1556 0052249 182.1628 238.0986 14.81364466797672
H-2A R/B                
1 38341U 12025E   26119.85206527  .00002771  00000+0  25167-3 0  9993
2 38341  98.4789  91.0350 0045024 144.0060 216.4205 14.95458727755867
SHIJIAN-16 (SJ-16)      
1 39358U 13057A   26119.84384756  .00001049  00000+0  10488-3 0  9995
2 39358  74.9706  88.2330 0016379 342.6964  17.3663 14.92484129679133
SL-4 R/B                
1 39679U 14021B   26119.37276729  .00012535  00000+0  26758-3 0  9990
2 39679  51.6054  89.6989 0092542 288.4504  70.6438 15.40786373664085
ALOS-2                  
1 39766U 14029A   26119.84931618  .00001461  00000+0  20247-3 0  9995
2 39766  97.9206 217.7045 0001698  85.1841 274.9565 14.79476134644438
YAOGAN-29               
1 41038U 15069A   26119.80250788 -.00000121  00000+0 -81978-5 0  9997
2 41038  98.0072 148.3519 0001977 133.2400 226.8979 14.83043302563456
ASTRO-H (HITOMI)        
1 41337U 16012A   26119.85831933  .00003446  00000+0  19945-3 0  9994
2 41337  31.0006  26.2597 0009387 127.3540 232.7954 15.10300797559970
HXMT (HUIYAN)           
1 42758U 17034A   26119.84545859  .00004840  00000+0  24208-3 0  9992
2 42758  43.0131  92.1253 0032026 200.8669 159.0874 15.18026810490319
