[{"OBJECT_NAME":"ALOS (DAICHI)","OBJECT_ID":"2006-002A","EPOCH":"2026-04-29T19:55:31.204128","MEAN_MOTION":14.69948901,"ECCENTRICITY":0.0002001,"INCLINATION":98.1292,"RA_OF_ASC_NODE":75.5624,"ARG_OF_PERICENTER":100.2575,"MEAN_ANOMALY":259.8857,"EPHEMERIS_TYPE":0,"CLASSIFICATION_TYPE":"U","NORAD_CAT_ID":28931,"ELEMENT_SET_NO":999,"REV_AT_EPOCH":8099,"BSTAR":0.00021986,"MEAN_MOTION_DOT":1.267e-5,"MEAN_MOTION_DDOT":0},{"OBJECT_NAME":"H-2A R/B","OBJECT_ID":"2006-002B","EPOCH":"2026-04-29T20:40:30.734976","MEAN_MOTION":15.17455082,"ECCENTRICITY":0.0052291,"INCLINATION":98.2501,"RA_OF_ASC_NODE":271.3601,"ARG_OF_PERICENTER":68.2071,"MEAN_ANOMALY":292.4712,"EPHEMERIS_TYPE":0,"CLASSIFICATION_TYPE":"U","NORAD_CAT_ID":28932,"ELEMENT_SET_NO":999,"REV_AT_EPOCH":10219,"BSTAR":0.00039726,"MEAN_MOTION_DOT":8.159e-5,"MEAN_MOTION_DDOT":0},{"OBJECT_NAME":"RESURS-DK 1","OBJECT_ID":"2006-021A","EPOCH":"2026-04-29T09:06:58.545792","MEAN_MOTION":15.13005782,"ECCENTRICITY":0.00036201,"INCLINATION":69.9315,"RA_OF_ASC_NODE":105.8738,"ARG_OF_PERICENTER":335.6764,"MEAN_ANOMALY":24.423,"EPHEMERIS_TYPE":0,"CLASSIFICATION_TYPE":"U","NORAD_CAT_ID":29228,"ELEMENT_SET_NO":999,"REV_AT_EPOCH":9519,"BSTAR":0.00015626579,"MEAN_MOTION_DOT":2.658e-5,"MEAN_MOTION_DDOT":0},{"OBJECT_NAME":"CZ-4B R/B","OBJECT_ID":"2006-046C","EPOCH":"2026-04-29T20:32:37.584384","MEAN_MOTION":15.17391168,"ECCENTRICITY":0.0034593,"INCLINATION":97.55,"RA_OF_ASC_NODE":164.6161,"ARG_OF_PERICENTER":90.5388,"MEAN_ANOMALY":269.9809,"EPHEMERIS_TYPE":0,"CLASSIFICATION_TYPE":"U","NORAD_CAT_ID":29507,"ELEMENT_SET_NO":999,"REV_AT_EPOCH":6780,"BSTAR":0.00026047,"MEAN_MOTION_DOT":5.215e-5,"MEAN_MOTION_DDOT":0},{"OBJECT_NAME":"CZ-2C R/B","OBJECT_ID":"2007-010B","EPOCH":"2026-04-29T20:56:44.372256","MEAN_MOTION":14.20263668,"ECCENTRICITY":0.0059765,"INCLINATION":98.404,"RA_OF_ASC_NODE":230.6007,"ARG_OF_PERICENTER":144.5605,"MEAN_ANOMALY":215.9567,"EPHEMERIS_TYPE":0,"CLASSIFICATION_TYPE":"U","NORAD_CAT_ID":31114,"ELEMENT_SET_NO":999,"REV_AT_EPOCH":98698,"BSTAR":7.0238e-5,"MEAN_MOTION_DOT":1.12e-6,"MEAN_MOTION_DDOT":0},{"OBJECT_NAME":"COSMO-SKYMED 1","OBJECT_ID":"2007-023A","EPOCH":"2026-04-29T19:23:26.169792","MEAN_MOTION":14.96865336,"ECCENTRICITY":0.0001711,"INCLINATION":97.8866,"RA_OF_ASC_NODE":311.2616,"ARG_OF_PERICENTER":97.9,"MEAN_ANOMALY":262.2415,"EPHEMERIS_TYPE":0,"CLASSIFICATION_TYPE":"U","NORAD_CAT_ID":31598,"ELEMENT_SET_NO":999,"REV_AT_EPOCH":2255,"BSTAR":0.00032306,"MEAN_MOTION_DOT":3.645e-5,"MEAN_MOTION_DDOT":0},{"OBJECT_NAME":"COSMOS 2428","OBJECT_ID":"2007-029A","EPOCH":"2026-04-29T08:46:20.863200","MEAN_MOTION":14.12944385,"ECCENTRICITY":0.00089039,"INCLINATION":70.9393,"RA_OF_ASC_NODE":96.9749,"ARG_OF_PERICENTER":220.1528,"MEAN_ANOMALY":139.8936,"EPHEMERIS_TYPE":0,"CLASSIFICATION_TYPE":"U","NORAD_CAT_ID":31792,"ELEMENT_SET_NO":999,"REV_AT_EPOCH":97125,"BSTAR":-7.7461989e-5,"MEAN_MOTION_DOT":-1.92e-6,"MEAN_MOTION_DDOT":0},{"OBJECT_NAME":"SL-16 R/B","OBJECT_ID":"2007-029B","EPOCH":"2026-04-29T21:25:43.332096","MEAN_MOTION":14.14847592,"ECCENTRICITY":0.0002516,"INCLINATION":70.976,"RA_OF_ASC_NODE":64.7481,"ARG_OF_PERICENTER":267.9695,"MEAN_ANOMALY":156.9386,"EPHEMERIS_TYPE":0,"CLASSIFICATION_TYPE":"U","NORAD_CAT_ID":31793,"ELEMENT_SET_NO":999,"REV_AT_EPOCH":97261,"BSTAR":0.00019711,"MEAN_MOTION_DOT":3.33e-6,"MEAN_MOTION_DDOT":0},{"OBJECT_NAME":"KORONAS-FOTON","OBJECT_ID":"2009-003A","EPOCH":"2026-04-29T18:26:20.124672","MEAN_MOTION":15.44684596,"ECCENTRICITY":0.0009478,"INCLINATION":82.4317,"RA_OF_ASC_NODE":222.7203,"ARG_OF_PERICENTER":336.0962,"MEAN_ANOMALY":23.9845,"EPHEMERIS_TYPE":0,"CLASSIFICATION_TYPE":"U","NORAD_CAT_ID":33504,"ELEMENT_SET_NO":999,"REV_AT_EPOCH":95362,"BSTAR":0.00030842,"MEAN_MOTION_DOT":0.00014449,"MEAN_MOTION_DDOT":0},{"OBJECT_NAME":"CZ-2C R/B","OBJECT_ID":"2011-030B","EPOCH":"2026-04-29T21:09:35.385120","MEAN_MOTION":14.81364466,"ECCENTRICITY":0.0052249,"INCLINATION":97.8622,"RA_OF_ASC_NODE":76.1556,"ARG_OF_PERICENTER":182.1628,"MEAN_ANOMALY":238.0986,"EPHEMERIS_TYPE":0,"CLASSIFICATION_TYPE":"U","NORAD_CAT_ID":37731,"ELEMENT_SET_NO":999,"REV_AT_EPOCH":79767,"BSTAR":0.00014321,"MEAN_MOTION_DOT":1.09e-5,"MEAN_MOTION_DDOT":0},{"OBJECT_NAME":"H-2A R/B","OBJECT_ID":"2012-025E","EPOCH":"2026-04-29T20:26:58.439328","MEAN_MOTION":14.95458727,"ECCENTRICITY":0.0045024,"INCLINATION":98.4789,"RA_OF_ASC_NODE":91.035,"ARG_OF_PERICENTER":144.006,"MEAN_ANOMALY":216.4205,"EPHEMERIS_TYPE":0,"CLASSIFICATION_TYPE":"U","NORAD_CAT_ID":38341,"ELEMENT_SET_NO":999,"REV_AT_EPOCH":75586,"BSTAR":0.00025167,"MEAN_MOTION_DOT":2.771e-5,"MEAN_MOTION_DDOT":0},{"OBJECT_NAME":"SHIJIAN-16 (SJ-16)","OBJECT_ID":"2013-057A","EPOCH":"2026-04-29T20:15:08.429184","MEAN_MOTION":14.92484129,"ECCENTRICITY":0.0016379,"INCLINATION":74.9706,"RA_OF_ASC_NODE":88.233,"ARG_OF_PERICENTER":342.6964,"MEAN_ANOMALY":17.3663,"EPHEMERIS_TYPE":0,"CLASSIFICATION_TYPE":"U","NORAD_CAT_ID":39358,"ELEMENT_SET_NO":999,"REV_AT_EPOCH":67913,"BSTAR":0.00010488,"MEAN_MOTION_DOT":1.049e-5,"MEAN_MOTION_DDOT":0},{"OBJECT_NAME":"SL-4 R/B","OBJECT_ID":"2014-021B","EPOCH":"2026-04-29T08:56:47.093856","MEAN_MOTION":15.40786373,"ECCENTRICITY":0.00925429,"INCLINATION":51.6054,"RA_OF_ASC_NODE":89.6989,"ARG_OF_PERICENTER":288.4504,"MEAN_ANOMALY":70.6438,"EPHEMERIS_TYPE":0,"CLASSIFICATION_TYPE":"U","NORAD_CAT_ID":39679,"ELEMENT_SET_NO":999,"REV_AT_EPOCH":66408,"BSTAR":0.0002675846,"MEAN_MOTION_DOT":0.00012535,"MEAN_MOTION_DDOT":0},{"OBJECT_NAME":"ALOS-2","OBJECT_ID":"2014-029A","EPOCH":"2026-04-29T20:23:00.917952","MEAN_MOTION":14.79476134,"ECCENTRICITY":0.0001698,"INCLINATION":97.9206,"RA_OF_ASC_NODE":217.7045,"ARG_OF_PERICENTER":85.1841,"MEAN_ANOMALY":274.9565,"EPHEMERIS_TYPE":0,"CLASSIFICATION_TYPE":"U","NORAD_CAT_ID":39766,"ELEMENT_SET_NO":999,"REV_AT_EPOCH":64443,"BSTAR":0.00020247,"MEAN_MOTION_DOT":1.461e-5,"MEAN_MOTION_DDOT":0},{"OBJECT_NAME":"YAOGAN-29","OBJECT_ID":"2015-069A","EPOCH":"2026-04-29T19:15:36.680832","MEAN_MOTION":14.83043302,"ECCENTRICITY":0.0001977,"INCLINATION":98.0072,"RA_OF_ASC_NODE":148.3519,"ARG_OF_PERICENTER":133.24,"MEAN_ANOMALY":226.8979,"EPHEMERIS_TYPE":0,"CLASSIFICATION_TYPE":"U","NORAD_CAT_ID":41038,"ELEMENT_SET_NO":999,"REV_AT_EPOCH":56345,"BSTAR":-8.1978e-6,"MEAN_MOTION_DOT":-1.21e-6,"MEAN_MOTION_DDOT":0},{"OBJECT_NAME":"ASTRO-H (HITOMI)","OBJECT_ID":"2016-012A","EPOCH":"2026-04-29T20:35:58.790112","MEAN_MOTION":15.10300797,"ECCENTRICITY":0.0009387,"INCLINATION":31.0006,"RA_OF_ASC_NODE":26.2597,"ARG_OF_PERICENTER":127.354,"MEAN_ANOMALY":232.7954,"EPHEMERIS_TYPE":0,"CLASSIFICATION_TYPE":"U","NORAD_CAT_ID":41337,"ELEMENT_SET_NO":999,"REV_AT_EPOCH":55997,"BSTAR":0.00019945,"MEAN_MOTION_DOT":3.446e-5,"MEAN_MOTION_DDOT":0},{"OBJECT_NAME":"HXMT (HUIYAN)","OBJECT_ID":"2017-034A","EPOCH":"2026-04-29T20:17:27.622176","MEAN_MOTION":15.1802681,"ECCENTRICITY":0.0032026,"INCLINATION":43.0131,"RA_OF_ASC_NODE":92.1253,"ARG_OF_PERICENTER":200.8669,"MEAN_ANOMALY":159.0874,"EPHEMERIS_TYPE":0,"CLASSIFICATION_TYPE":"U","NORAD_CAT_ID":42758,"ELEMENT_SET_NO":999,"REV_AT_EPOCH":49031,"BSTAR":0.00024208,"MEAN_MOTION_DOT":4.84e-5,"MEAN_MOTION_DDOT":0}]
